[{"OBJECT_NAME":"ONEWEB-0352","OBJECT_ID":"2021-083AG","EPOCH":"2025-10-27T05:25:53.009472","MEAN_MOTION":13.13468348,"ECCENTRICITY":0.00022177,"INCLINATION":87.9021,"RA_OF_ASC_NODE":6.5492,"ARG_OF_PERICENTER":106.6317,"MEAN_ANOMALY":253.5056,"EPHEMERIS_TYPE":0,"CLASSIFICATION_TYPE":"U","NORAD_CAT_ID":49216,"ELEMENT_SET_NO":999,"REV_AT_EPOCH":20044,"BSTAR":-0.00057968648,"MEAN_MOTION_DOT":-1.99e-6,"MEAN_MOTION_DDOT":0},{"OBJECT_NAME":"ONEWEB-0354","OBJECT_ID":"2021-083AH","EPOCH":"2025-10-27T00:42:22.809024","MEAN_MOTION":13.20771156,"ECCENTRICITY":0.0001947,"INCLINATION":87.9203,"RA_OF_ASC_NODE":320.9349,"ARG_OF_PERICENTER":84.7677,"MEAN_ANOMALY":275.3678,"EPHEMERIS_TYPE":0,"CLASSIFICATION_TYPE":"U","NORAD_CAT_ID":49217,"ELEMENT_SET_NO":999,"REV_AT_EPOCH":20603,"BSTAR":0.00017038077,"MEAN_MOTION_DOT":8.2e-7,"MEAN_MOTION_DDOT":0},{"OBJECT_NAME":"ONEWEB-0355","OBJECT_ID":"2021-083AJ","EPOCH":"2025-10-27T06:07:32.721312","MEAN_MOTION":13.13469306,"ECCENTRICITY":0.00020729,"INCLINATION":87.903,"RA_OF_ASC_NODE":6.5547,"ARG_OF_PERICENTER":98.519,"MEAN_ANOMALY":261.6174,"EPHEMERIS_TYPE":0,"CLASSIFICATION_TYPE":"U","NORAD_CAT_ID":49218,"ELEMENT_SET_NO":999,"REV_AT_EPOCH":20032,"BSTAR":0.00091211802,"MEAN_MOTION_DOT":3.46e-6,"MEAN_MOTION_DDOT":0},{"OBJECT_NAME":"ONEWEB-0357","OBJECT_ID":"2021-083AK","EPOCH":"2025-10-27T07:54:11.656512","MEAN_MOTION":13.20770505,"ECCENTRICITY":0.00020413,"INCLINATION":87.9202,"RA_OF_ASC_NODE":320.8725,"ARG_OF_PERICENTER":93.1395,"MEAN_ANOMALY":266.9972,"EPHEMERIS_TYPE":0,"CLASSIFICATION_TYPE":"U","NORAD_CAT_ID":49219,"ELEMENT_SET_NO":999,"REV_AT_EPOCH":20607,"BSTAR":0.00017520297,"MEAN_MOTION_DOT":8.4e-7,"MEAN_MOTION_DDOT":0},{"OBJECT_NAME":"ONEWEB-0332","OBJECT_ID":"2021-090A","EPOCH":"2025-10-27T03:30:12.761856","MEAN_MOTION":13.14503394,"ECCENTRICITY":0.00018779,"INCLINATION":87.9007,"RA_OF_ASC_NODE":336.1465,"ARG_OF_PERICENTER":104.548,"MEAN_ANOMALY":255.5858,"EPHEMERIS_TYPE":0,"CLASSIFICATION_TYPE":"U","NORAD_CAT_ID":49279,"ELEMENT_SET_NO":999,"REV_AT_EPOCH":19696,"BSTAR":-0.00012296819,"MEAN_MOTION_DOT":-3.3e-7,"MEAN_MOTION_DDOT":0},{"OBJECT_NAME":"ONEWEB-0347","OBJECT_ID":"2021-090B","EPOCH":"2025-10-27T07:40:31.887264","MEAN_MOTION":13.20777092,"ECCENTRICITY":0.00020888,"INCLINATION":87.9154,"RA_OF_ASC_NODE":320.8877,"ARG_OF_PERICENTER":98.5407,"MEAN_ANOMALY":261.5963,"EPHEMERIS_TYPE":0,"CLASSIFICATION_TYPE":"U","NORAD_CAT_ID":49280,"ELEMENT_SET_NO":999,"REV_AT_EPOCH":20030,"BSTAR":0.00041601423,"MEAN_MOTION_DOT":1.82e-6,"MEAN_MOTION_DDOT":0},{"OBJECT_NAME":"ONEWEB-0349","OBJECT_ID":"2021-090C","EPOCH":"2025-10-27T01:09:38.427552","MEAN_MOTION":13.20770984,"ECCENTRICITY":0.00019454,"INCLINATION":87.9193,"RA_OF_ASC_NODE":320.941,"ARG_OF_PERICENTER":94.2242,"MEAN_ANOMALY":265.9113,"EPHEMERIS_TYPE":0,"CLASSIFICATION_TYPE":"U","NORAD_CAT_ID":49281,"ELEMENT_SET_NO":999,"REV_AT_EPOCH":19905,"BSTAR":9.8396948e-5,"MEAN_MOTION_DOT":5.3e-7,"MEAN_MOTION_DDOT":0},{"OBJECT_NAME":"ONEWEB-0353","OBJECT_ID":"2021-090D","EPOCH":"2025-10-27T03:18:46.782144","MEAN_MOTION":13.14504263,"ECCENTRICITY":0.00018313,"INCLINATION":87.9011,"RA_OF_ASC_NODE":336.1305,"ARG_OF_PERICENTER":104.1583,"MEAN_ANOMALY":255.9751,"EPHEMERIS_TYPE":0,"CLASSIFICATION_TYPE":"U","NORAD_CAT_ID":49282,"ELEMENT_SET_NO":999,"REV_AT_EPOCH":19696,"BSTAR":-0.00035012882,"MEAN_MOTION_DOT":-1.17e-6,"MEAN_MOTION_DDOT":0},{"OBJECT_NAME":"ONEWEB-0356","OBJECT_ID":"2021-090E","EPOCH":"2025-10-27T01:07:22.712160","MEAN_MOTION":13.20770659,"ECCENTRICITY":9.559e-5,"INCLINATION":87.9192,"RA_OF_ASC_NODE":320.9325,"ARG_OF_PERICENTER":85.7995,"MEAN_ANOMALY":274.3247,"EPHEMERIS_TYPE":0,"CLASSIFICATION_TYPE":"U","NORAD_CAT_ID":49283,"ELEMENT_SET_NO":999,"REV_AT_EPOCH":19905,"BSTAR":-9.746988e-5,"MEAN_MOTION_DOT":-2.7e-7,"MEAN_MOTION_DDOT":0},{"OBJECT_NAME":"ONEWEB-0358","OBJECT_ID":"2021-090F","EPOCH":"2025-10-27T07:17:49.963200","MEAN_MOTION":13.20771626,"ECCENTRICITY":0.00017636,"INCLINATION":87.9203,"RA_OF_ASC_NODE":320.8791,"ARG_OF_PERICENTER":90.6323,"MEAN_ANOMALY":269.5012,"EPHEMERIS_TYPE":0,"CLASSIFICATION_TYPE":"U","NORAD_CAT_ID":49284,"ELEMENT_SET_NO":999,"REV_AT_EPOCH":19981,"BSTAR":0.00023713759,"MEAN_MOTION_DOT":1.09e-6,"MEAN_MOTION_DDOT":0},{"OBJECT_NAME":"ONEWEB-0359","OBJECT_ID":"2021-090G","EPOCH":"2025-10-27T03:35:05.118720","MEAN_MOTION":13.20769074,"ECCENTRICITY":0.00019538,"INCLINATION":87.9191,"RA_OF_ASC_NODE":320.9131,"ARG_OF_PERICENTER":82.3446,"MEAN_ANOMALY":277.7909,"EPHEMERIS_TYPE":0,"CLASSIFICATION_TYPE":"U","NORAD_CAT_ID":49285,"ELEMENT_SET_NO":999,"REV_AT_EPOCH":19977,"BSTAR":-0.00019837455,"MEAN_MOTION_DOT":-6.8e-7,"MEAN_MOTION_DDOT":0},{"OBJECT_NAME":"ONEWEB-0360","OBJECT_ID":"2021-090H","EPOCH":"2025-10-27T03:21:26.552160","MEAN_MOTION":13.20768976,"ECCENTRICITY":0.00019535,"INCLINATION":87.9192,"RA_OF_ASC_NODE":320.9241,"ARG_OF_PERICENTER":90.1219,"MEAN_ANOMALY":270.0138,"EPHEMERIS_TYPE":0,"CLASSIFICATION_TYPE":"U","NORAD_CAT_ID":49286,"ELEMENT_SET_NO":999,"REV_AT_EPOCH":19908,"BSTAR":-1.5484578e-5,"MEAN_MOTION_DOT":7.0e-8,"MEAN_MOTION_DDOT":0},{"OBJECT_NAME":"ONEWEB-0361","OBJECT_ID":"2021-090J","EPOCH":"2025-10-27T01:05:06.474912","MEAN_MOTION":13.20771845,"ECCENTRICITY":0.00017141,"INCLINATION":87.919,"RA_OF_ASC_NODE":320.9386,"ARG_OF_PERICENTER":92.0793,"MEAN_ANOMALY":268.0537,"EPHEMERIS_TYPE":0,"CLASSIFICATION_TYPE":"U","NORAD_CAT_ID":49287,"ELEMENT_SET_NO":999,"REV_AT_EPOCH":19952,"BSTAR":4.9292701e-5,"MEAN_MOTION_DOT":3.3e-7,"MEAN_MOTION_DDOT":0},{"OBJECT_NAME":"ONEWEB-0362","OBJECT_ID":"2021-090K","EPOCH":"2025-10-27T04:36:48.544992","MEAN_MOTION":13.19725214,"ECCENTRICITY":0.00021469,"INCLINATION":87.9237,"RA_OF_ASC_NODE":351.3453,"ARG_OF_PERICENTER":98.6628,"MEAN_ANOMALY":261.4748,"EPHEMERIS_TYPE":0,"CLASSIFICATION_TYPE":"U","NORAD_CAT_ID":49288,"ELEMENT_SET_NO":999,"REV_AT_EPOCH":19618,"BSTAR":1.8195125e-5,"MEAN_MOTION_DOT":2.0e-7,"MEAN_MOTION_DDOT":0},{"OBJECT_NAME":"ONEWEB-0363","OBJECT_ID":"2021-090L","EPOCH":"2025-10-27T03:16:53.648256","MEAN_MOTION":13.2077111,"ECCENTRICITY":0.00015042,"INCLINATION":87.9194,"RA_OF_ASC_NODE":320.9168,"ARG_OF_PERICENTER":88.1512,"MEAN_ANOMALY":271.9794,"EPHEMERIS_TYPE":0,"CLASSIFICATION_TYPE":"U","NORAD_CAT_ID":49289,"ELEMENT_SET_NO":999,"REV_AT_EPOCH":19954,"BSTAR":2.2408937e-5,"MEAN_MOTION_DOT":2.2e-7,"MEAN_MOTION_DDOT":0},{"OBJECT_NAME":"ONEWEB-0364","OBJECT_ID":"2021-090M","EPOCH":"2025-10-27T07:49:36.946848","MEAN_MOTION":13.20770308,"ECCENTRICITY":0.00017047,"INCLINATION":87.9195,"RA_OF_ASC_NODE":320.9045,"ARG_OF_PERICENTER":93.3451,"MEAN_ANOMALY":266.7877,"EPHEMERIS_TYPE":0,"CLASSIFICATION_TYPE":"U","NORAD_CAT_ID":49290,"ELEMENT_SET_NO":999,"REV_AT_EPOCH":20070,"BSTAR":0.00015317758,"MEAN_MOTION_DOT":7.5e-7,"MEAN_MOTION_DDOT":0}]
