ONEWEB-0352             
1 49216U 21083AG  25300.22630798 -.00000199  00000+0 -57969-3 0  9992
2 49216  87.9021   6.5492 0002217 106.6317 253.5056 13.13468348200440
ONEWEB-0354             
1 49217U 21083AH  25300.02943066  .00000082  00000+0  17038-3 0  9998
2 49217  87.9203 320.9349 0001947  84.7677 275.3678 13.20771156206036
ONEWEB-0355             
1 49218U 21083AJ  25300.25523983  .00000346  00000+0  91212-3 0  9995
2 49218  87.9030   6.5547 0002072  98.5190 261.6174 13.13469306200323
ONEWEB-0357             
1 49219U 21083AK  25300.32930158  .00000084  00000+0  17520-3 0  9999
2 49219  87.9202 320.8725 0002041  93.1395 266.9972 13.20770505206075
ONEWEB-0332             
1 49279U 21090A   25300.14598104 -.00000033  00000+0 -12297-3 0  9996
2 49279  87.9007 336.1465 0001877 104.5480 255.5858 13.14503394196969
ONEWEB-0347             
1 49280U 21090B   25300.31981351  .00000182  00000+0  41601-3 0  9991
2 49280  87.9154 320.8877 0002088  98.5407 261.5963 13.20777092200300
ONEWEB-0349             
1 49281U 21090C   25300.04836143  .00000053  00000+0  98397-4 0  9992
2 49281  87.9193 320.9410 0001945  94.2242 265.9113 13.20770984199056
ONEWEB-0353             
1 49282U 21090D   25300.13804146 -.00000117  00000+0 -35013-3 0  9999
2 49282  87.9011 336.1305 0001831 104.1583 255.9751 13.14504263196963
ONEWEB-0356             
1 49283U 21090E   25300.04679065 -.00000027  00000+0 -97470-4 0  9996
2 49283  87.9192 320.9325 0000955  85.7995 274.3247 13.20770659199053
ONEWEB-0358             
1 49284U 21090F   25300.30405050  .00000109  00000+0  23714-3 0  9995
2 49284  87.9203 320.8791 0001763  90.6323 269.5012 13.20771626199816
ONEWEB-0359             
1 49285U 21090G   25300.14936480 -.00000068  00000+0 -19837-3 0  9991
2 49285  87.9191 320.9131 0001953  82.3446 277.7909 13.20769074199772
ONEWEB-0360             
1 49286U 21090H   25300.13989065  .00000007  00000+0 -15485-4 0  9996
2 49286  87.9192 320.9241 0001953  90.1219 270.0138 13.20768976199085
ONEWEB-0361             
1 49287U 21090J   25300.04521383  .00000033  00000+0  49293-4 0  9994
2 49287  87.9190 320.9386 0001714  92.0793 268.0537 13.20771845199525
ONEWEB-0362             
1 49288U 21090K   25300.19222853  .00000020  00000+0  18195-4 0  9994
2 49288  87.9237 351.3453 0002146  98.6628 261.4748 13.19725214196187
ONEWEB-0363             
1 49289U 21090L   25300.13673204  .00000022  00000+0  22409-4 0  9994
2 49289  87.9194 320.9168 0001504  88.1512 271.9794 13.20771110199546
ONEWEB-0364             
1 49290U 21090M   25300.32612207  .00000075  00000+0  15318-3 0  9991
2 49290  87.9195 320.9045 0001704  93.3451 266.7877 13.20770308200708
